{
  "type": "FeatureCollection",
  "features": [
    {
      "type": "Feature",
      "properties": {
        "norad_id": 35834,
        "name": "COSMOS 2251 DEB",
        "group": "cosmos-2251-debris",
        "lat": -17.302853522746524,
        "lon": 139.48912977815414,
        "alt_km": 842.0314455694452,
        "timestamp": "2025-12-07T05:38:10.300321+00:00",
        "meta_object_name": "COSMOS 2251 DEB",
        "meta_object_id": "1993-036ATG",
        "meta_epoch": "2025-12-06T09:01:45.147936",
        "meta_mean_motion": 14.12970269,
        "meta_eccentricity": 0.0109142,
        "meta_inclination": 73.9305,
        "meta_ra_of_asc_node": 315.8649,
        "meta_arg_of_pericenter": 117.5513,
        "meta_mean_anomaly": 33.2759,
        "meta_ephemeris_type": 0,
        "meta_classification_type": "U",
        "meta_norad_cat_id": 35834,
        "meta_element_set_no": 999,
        "meta_rev_at_epoch": 66173,
        "meta_bstar": 0.0003240032,
        "meta_mean_motion_dot": 6.14e-06,
        "meta_mean_motion_ddot": 0,
        "tle_line1": "1 35834U 93036ATG 25340.37621699  .00000614  00000+0  32400-3 0  9993",
        "tle_line2": "2 35834  73.9305 315.8649 0109142 117.5513  33.2759 14.12970269661731"
      },
      "geometry": {
        "type": "Point",
        "coordinates": [
          139.48912977815414,
          -17.302853522746524
        ]
      }
    },
    {
      "type": "Feature",
      "properties": {
        "norad_id": 35835,
        "name": "COSMOS 2251 DEB",
        "group": "cosmos-2251-debris",
        "lat": 5.894790703729692,
        "lon": -80.61762158718231,
        "alt_km": 827.7489937631908,
        "timestamp": "2025-12-07T05:38:10.300331+00:00",
        "meta_object_name": "COSMOS 2251 DEB",
        "meta_object_id": "1993-036ATH",
        "meta_epoch": "2025-12-04T13:22:03.090144",
        "meta_mean_motion": 13.82821616,
        "meta_eccentricity": 0.0289764,
        "meta_inclination": 74.0638,
        "meta_ra_of_asc_node": 282.192,
        "meta_arg_of_pericenter": 65.7075,
        "meta_mean_anomaly": 297.4021,
        "meta_ephemeris_type": 0,
        "meta_classification_type": "U",
        "meta_norad_cat_id": 35835,
        "meta_element_set_no": 999,
        "meta_rev_at_epoch": 61586,
        "meta_bstar": 0.0025294,
        "meta_mean_motion_dot": 3.783e-05,
        "meta_mean_motion_ddot": 0,
        "tle_line1": "1 35835U 93036ATH 25338.55698021  .00003783  00000+0  25294-2 0  9996",
        "tle_line2": "2 35835  74.0638 282.1920 0289764  65.7075 297.4021 13.82821616615863"
      },
      "geometry": {
        "type": "Point",
        "coordinates": [
          -80.61762158718231,
          5.894790703729692
        ]
      }
    },
    {
      "type": "Feature",
      "properties": {
        "norad_id": 35836,
        "name": "COSMOS 2251 DEB",
        "group": "cosmos-2251-debris",
        "lat": -68.60639277235815,
        "lon": 136.66343625661375,
        "alt_km": 652.3858045595789,
        "timestamp": "2025-12-07T05:38:10.300341+00:00",
        "meta_object_name": "COSMOS 2251 DEB",
        "meta_object_id": "1993-036ATJ",
        "meta_epoch": "2025-12-06T13:39:15.783552",
        "meta_mean_motion": 14.70769122,
        "meta_eccentricity": 0.00248073,
        "meta_inclination": 74.0314,
        "meta_ra_of_asc_node": 184.918,
        "meta_arg_of_pericenter": 244.2661,
        "meta_mean_anomaly": 115.595,
        "meta_ephemeris_type": 0,
        "meta_classification_type": "U",
        "meta_norad_cat_id": 35836,
        "meta_element_set_no": 999,
        "meta_rev_at_epoch": 63429,
        "meta_bstar": 0.0028915856,
        "meta_mean_motion_dot": 0.00017747,
        "meta_mean_motion_ddot": 0,
        "tle_line1": "1 35836U 93036ATJ 25340.56893268  .00017747  00000+0  28916-2 0  9990",
        "tle_line2": "2 35836  74.0314 184.9180 0024807 244.2661 115.5950 14.70769122634292"
      },
      "geometry": {
        "type": "Point",
        "coordinates": [
          136.66343625661375,
          -68.60639277235815
        ]
      }
    },
    {
      "type": "Feature",
      "properties": {
        "norad_id": 35837,
        "name": "COSMOS 2251 DEB",
        "group": "cosmos-2251-debris",
        "lat": 0.9187476421149868,
        "lon": 36.51559225457171,
        "alt_km": 782.6192696282087,
        "timestamp": "2025-12-07T05:38:10.300351+00:00",
        "meta_object_name": "COSMOS 2251 DEB",
        "meta_object_id": "1993-036ATK",
        "meta_epoch": "2025-12-06T00:57:00.155232",
        "meta_mean_motion": 13.63407425,
        "meta_eccentricity": 0.04220745,
        "meta_inclination": 73.7215,
        "meta_ra_of_asc_node": 218.7719,
        "meta_arg_of_pericenter": 140.6182,
        "meta_mean_anomaly": 290.7471,
        "meta_ephemeris_type": 0,
        "meta_classification_type": "U",
        "meta_norad_cat_id": 35837,
        "meta_element_set_no": 999,
        "meta_rev_at_epoch": 57885,
        "meta_bstar": 0.0028460972,
        "meta_mean_motion_dot": 4.083e-05,
        "meta_mean_motion_ddot": 0,
        "tle_line1": "1 35837U 93036ATK 25340.03958513  .00004083  00000+0  28461-2 0  9992",
        "tle_line2": "2 35837  73.7215 218.7719 0422074 140.6182 290.7471 13.63407425578857"
      },
      "geometry": {
        "type": "Point",
        "coordinates": [
          36.51559225457171,
          0.9187476421149868
        ]
      }
    },
    {
      "type": "Feature",
      "properties": {
        "norad_id": 35839,
        "name": "COSMOS 2251 DEB",
        "group": "cosmos-2251-debris",
        "lat": 72.77389736279983,
        "lon": 89.633417169436,
        "alt_km": 418.2325808950882,
        "timestamp": "2025-12-07T05:38:10.300361+00:00",
        "meta_object_name": "COSMOS 2251 DEB",
        "meta_object_id": "1993-036ATM",
        "meta_epoch": "2025-12-04T16:40:31.810368",
        "meta_mean_motion": 15.46007318,
        "meta_eccentricity": 0.00035851,
        "meta_inclination": 74.2143,
        "meta_ra_of_asc_node": 340.9603,
        "meta_arg_of_pericenter": 348.8276,
        "meta_mean_anomaly": 11.2856,
        "meta_ephemeris_type": 0,
        "meta_classification_type": "U",
        "meta_norad_cat_id": 35839,
        "meta_element_set_no": 999,
        "meta_rev_at_epoch": 88443,
        "meta_bstar": 0.0054614209,
        "meta_mean_motion_dot": 0.00276351,
        "meta_mean_motion_ddot": 0,
        "tle_line1": "1 35839U 93036ATM 25338.69481262  .00276351  00000+0  54614-2 0  9993",
        "tle_line2": "2 35839  74.2143 340.9603 0003585 348.8276  11.2856 15.46007318884430"
      },
      "geometry": {
        "type": "Point",
        "coordinates": [
          89.633417169436,
          72.77389736279983
        ]
      }
    },
    {
      "type": "Feature",
      "properties": {
        "norad_id": 35840,
        "name": "COSMOS 2251 DEB",
        "group": "cosmos-2251-debris",
        "lat": -50.68250212304998,
        "lon": 147.77331997792282,
        "alt_km": 820.3887098738787,
        "timestamp": "2025-12-07T05:38:10.300371+00:00",
        "meta_object_name": "COSMOS 2251 DEB",
        "meta_object_id": "1993-036ATN",
        "meta_epoch": "2025-12-06T06:30:23.923008",
        "meta_mean_motion": 14.37729303,
        "meta_eccentricity": 0.01161221,
        "meta_inclination": 73.9295,
        "meta_ra_of_asc_node": 170.1667,
        "meta_arg_of_pericenter": 74.235,
        "meta_mean_anomaly": 287.1572,
        "meta_ephemeris_type": 0,
        "meta_classification_type": "U",
        "meta_norad_cat_id": 35840,
        "meta_element_set_no": 999,
        "meta_rev_at_epoch": 85198,
        "meta_bstar": 0.0028240718,
        "meta_mean_motion_dot": 9.169e-05,
        "meta_mean_motion_ddot": 0,
        "tle_line1": "1 35840U 93036ATN 25340.27111022  .00009169  00000+0  28241-2 0  9994",
        "tle_line2": "2 35840  73.9295 170.1667 0116122  74.2350 287.1572 14.37729303851981"
      },
      "geometry": {
        "type": "Point",
        "coordinates": [
          147.77331997792282,
          -50.68250212304998
        ]
      }
    },
    {
      "type": "Feature",
      "properties": {
        "norad_id": 35883,
        "name": "COSMOS 2251 DEB",
        "group": "cosmos-2251-debris",
        "lat": 50.47329136109033,
        "lon": 100.70427832423485,
        "alt_km": 773.8588511770722,
        "timestamp": "2025-12-07T05:38:10.300381+00:00",
        "meta_object_name": "COSMOS 2251 DEB",
        "meta_object_id": "1993-036ATW",
        "meta_epoch": "2025-11-29T02:53:29.744160",
        "meta_mean_motion": 14.50541303,
        "meta_eccentricity": 0.00841977,
        "meta_inclination": 74.0237,
        "meta_ra_of_asc_node": 95.6459,
        "meta_arg_of_pericenter": 227.8885,
        "meta_mean_anomaly": 309.997,
        "meta_ephemeris_type": 0,
        "meta_classification_type": "U",
        "meta_norad_cat_id": 35883,
        "meta_element_set_no": 999,
        "meta_rev_at_epoch": 62188,
        "meta_bstar": 0.00041574036,
        "meta_mean_motion_dot": 1.674e-05,
        "meta_mean_motion_ddot": 0,
        "tle_line1": "1 35883U 93036ATW 25333.12048315  .00001674  00000+0  41574-3 0  9999",
        "tle_line2": "2 35883  74.0237  95.6459 0084197 227.8885 309.9970 14.50541303621887"
      },
      "geometry": {
        "type": "Point",
        "coordinates": [
          100.70427832423485,
          50.47329136109033
        ]
      }
    }
  ]
}